[{"OBJECT_NAME":"STARLINK-31270","OBJECT_ID":"2024-044C","EPOCH":"2026-03-09T10:07:31.782432","MEAN_MOTION":15.27567119,"ECCENTRICITY":7.702e-5,"INCLINATION":43.0016,"RA_OF_ASC_NODE":108.6228,"ARG_OF_PERICENTER":219.3412,"MEAN_ANOMALY":140.7384,"EPHEMERIS_TYPE":0,"CLASSIFICATION_TYPE":"U","NORAD_CAT_ID":59154,"ELEMENT_SET_NO":999,"REV_AT_EPOCH":11355,"BSTAR":-6.606363e-5,"MEAN_MOTION_DOT":-2.079e-5,"MEAN_MOTION_DDOT":0},{"OBJECT_NAME":"COSMOS 1862","OBJECT_ID":"1987-055A","EPOCH":"2026-03-09T22:37:02.390592","MEAN_MOTION":15.30492139,"ECCENTRICITY":0.00097484,"INCLINATION":82.4856,"RA_OF_ASC_NODE":47.1862,"ARG_OF_PERICENTER":26.6325,"MEAN_ANOMALY":333.5414,"EPHEMERIS_TYPE":0,"CLASSIFICATION_TYPE":"U","NORAD_CAT_ID":18152,"ELEMENT_SET_NO":999,"REV_AT_EPOCH":8987,"BSTAR":0.00034125048,"MEAN_MOTION_DOT":0.00010107,"MEAN_MOTION_DDOT":0}]
